[
    {
        "CCSDS_OMM_VERS": "3.0",
        "COMMENT": "GENERATED VIA SPACE-TRACK.ORG API",
        "CREATION_DATE": "2025-04-13T03:46:00",
        "ORIGINATOR": "18 SPCS",
        "OBJECT_NAME": "GALILEO 12 (269)",
        "OBJECT_ID": "2015-079A",
        "CENTER_NAME": "EARTH",
        "REF_FRAME": "TEME",
        "TIME_SYSTEM": "UTC",
        "MEAN_ELEMENT_THEORY": "SGP4",
        "EPOCH": "2025-04-12T11:40:02.305056",
        "MEAN_MOTION": "1.70474478",
        "ECCENTRICITY": "0.00054480",
        "INCLINATION": "55.5730",
        "RA_OF_ASC_NODE": "113.0869",
        "ARG_OF_PERICENTER": "315.2462",
        "MEAN_ANOMALY": "44.7516",
        "EPHEMERIS_TYPE": "0",
        "CLASSIFICATION_TYPE": "U",
        "NORAD_CAT_ID": "41174",
        "ELEMENT_SET_NO": "999",
        "REV_AT_EPOCH": "5743",
        "BSTAR": "0.00000000000000",
        "MEAN_MOTION_DOT": "0.00000055",
        "MEAN_MOTION_DDOT": "0.0000000000000",
        "SEMIMAJOR_AXIS": "29600.265",
        "PERIOD": "844.701",
        "APOAPSIS": "23238.256",
        "PERIAPSIS": "23206.004",
        "OBJECT_TYPE": "PAYLOAD",
        "RCS_SIZE": "LARGE",
        "COUNTRY_CODE": "ESA",
        "LAUNCH_DATE": "2015-12-17",
        "SITE": "FRGUI",
        "DECAY_DATE": null,
        "FILE": "4700252",
        "GP_ID": "285482713",
        "TLE_LINE0": "0 GALILEO 12 (269)",
        "TLE_LINE1": "1 41174U 15079A   25102.48613779  .00000055  00000-0  00000-0 0  9994",
        "TLE_LINE2": "2 41174  55.5730 113.0869 0005448 315.2462  44.7516  1.70474478 57434"
    }
]